TEVEL2-2                
1 63219U 25052K   26138.22488334  .00009425  00000+0  29999-3 0  9999
2 63219  97.3912  34.1896 0001760 176.9146 183.2107 15.32796479 65504
TEVEL2-9                
1 63237U 25052AD  26138.42594264  .00008597  00000+0  29029-3 0  9994
2 63237  97.3973  33.8279 0004238 235.7490 124.3350 15.30913495 65470
TEVEL2-7                
1 63238U 25052AE  26138.19989160  .00008649  00000+0  29451-3 0  9999
2 63238  97.3976  33.5307 0004394 237.4810 122.6007 15.30638211 65437
TEVEL2-8                
1 63239U 25052AF  26138.27319006  .00008480  00000+0  28896-3 0  9990
2 63239  97.3977  33.5817 0004296 238.0378 122.0445 15.30621046 65441
HADES-ICM               
1 63492U 25052BN  26138.47705780  .01623772  18257-2  21526-2 0  9997
2 63492  97.3723  43.1467 0011435 187.6548 172.4561 16.07070045 66115
INNOSAT 16 (RS92S7)     
1 64878U 25155C   26138.48033494  .00003873  00000+0  15754-3 0  9991
2 64878  97.4553 105.7149 0008623 295.5453  64.4893 15.25106228 76141
GEOSCAN 6 (RS92S6)      
1 64879U 25155D   26138.48622146  .00006309  00000+0  22295-3 0  9995
2 64879  97.4546 106.9412 0005610 287.3808  72.6819 15.29539695 76226
GEOSCAN 1 (RS92S1)      
1 64880U 25155E   26138.49973837  .00006658  00000+0  23126-3 0  9995
2 64880  97.4544 107.0781 0005489 287.5909  72.4732 15.30085443 76237
239ALFEROV (RS61S)      
1 64881U 25155F   26138.50983866  .00008914  00000+0  29025-3 0  9992
2 64881  97.4545 107.5544 0004884 286.3337  73.7367 15.32077210 76267
GEOSCAN 2 (RS92S2)      
1 64890U 25155Q   26138.49871866  .00006425  00000+0  22135-3 0  9996
2 64890  97.4542 107.2177 0004766 268.5253  91.5441 15.30365105 76241
GEOSCAN 5 (RS92S5)      
1 64891U 25155R   26138.50502044  .00008769  00000+0  28276-3 0  9993
2 64891  97.4537 107.6758 0003861 298.3878  61.6974 15.32396794 76276
GEOSCAN 4 (RS92S4)      
1 64892U 25155S   26138.49200605  .00008697  00000+0  27929-3 0  9994
2 64892  97.4541 107.7029 0003874 298.7626  61.3227 15.32531765 76270
GEOSCAN 3 (RS92S3)      
1 64893U 25155T   26138.52917209  .00011156  00000+0  33805-3 0  9998
2 64893  97.4530 108.0891 0003461 299.8986  60.1913 15.34315343 76300
INNOSAT 3 (RS92S0)      
1 64894U 25155U   26138.54040628  .00020366  00000+0  48522-3 0  9998
2 64894  97.4486 109.3809 0001685 308.7115  51.3981 15.41623157 76393
KNACKSAT-2              
1 67683U 98067XZ  26138.15020715  .00031493  00000+0  42858-3 0  9990
2 67683  51.6302  85.2389 0012324  88.8056 271.4348 15.57192031 15594
